{
  "type": "FeatureCollection",
  "features": [
    {
      "type": "Feature",
      "properties": {
        "norad_id": 28890,
        "name": "BEIJING 1",
        "group": "dmc",
        "lat": 69.88709215354989,
        "lon": -28.673097358014353,
        "alt_km": 664.4146402909782,
        "timestamp": "2025-12-26T09:30:53.294720+00:00",
        "meta_object_name": "BEIJING 1",
        "meta_object_id": "2005-043A",
        "meta_epoch": "2025-12-25T23:10:34.351968",
        "meta_mean_motion": 14.6337783,
        "meta_eccentricity": 0.00158315,
        "meta_inclination": 98.2664,
        "meta_ra_of_asc_node": 127.5046,
        "meta_arg_of_pericenter": 102.3973,
        "meta_mean_anomaly": 257.9002,
        "meta_ephemeris_type": 0,
        "meta_classification_type": "U",
        "meta_norad_cat_id": 28890,
        "meta_element_set_no": 999,
        "meta_rev_at_epoch": 7531,
        "meta_bstar": 9.0116198e-05,
        "meta_mean_motion_dot": 4.18e-06,
        "meta_mean_motion_ddot": 0,
        "tle_line1": "1 28890U 05043A   25359.96567537  .00000418  00000+0  90116-4 0  9994",
        "tle_line2": "2 28890  98.2664 127.5046 0015831 102.3973 257.9002 14.63377830 75315"
      },
      "geometry": {
        "type": "Point",
        "coordinates": [
          -28.673097358014353,
          69.88709215354989
        ]
      }
    },
    {
      "type": "Feature",
      "properties": {
        "norad_id": 33320,
        "name": "HUANJING 1A (HJ-1A)",
        "group": "dmc",
        "lat": 38.68127054086757,
        "lon": -18.056597104160986,
        "alt_km": 606.7501245658932,
        "timestamp": "2025-12-26T09:30:53.294763+00:00",
        "meta_object_name": "HUANJING 1A (HJ-1A)",
        "meta_object_id": "2008-041A",
        "meta_epoch": "2025-12-26T04:28:59.352384",
        "meta_mean_motion": 14.83435533,
        "meta_eccentricity": 0.0019119,
        "meta_inclination": 97.6552,
        "meta_ra_of_asc_node": 347.9242,
        "meta_arg_of_pericenter": 351.3642,
        "meta_mean_anomaly": 8.724,
        "meta_ephemeris_type": 0,
        "meta_classification_type": "U",
        "meta_norad_cat_id": 33320,
        "meta_element_set_no": 999,
        "meta_rev_at_epoch": 93275,
        "meta_bstar": 0.00023251,
        "meta_mean_motion_dot": 1.864e-05,
        "meta_mean_motion_ddot": 0,
        "tle_line1": "1 33320U 08041A   25360.18679806  .00001864  00000+0  23251-3 0  9999",
        "tle_line2": "2 33320  97.6552 347.9242 0019119 351.3642   8.7240 14.83435533932759"
      },
      "geometry": {
        "type": "Point",
        "coordinates": [
          -18.056597104160986,
          38.68127054086757
        ]
      }
    },
    {
      "type": "Feature",
      "properties": {
        "norad_id": 33321,
        "name": "HUANJING 1B (HJ-1B)",
        "group": "dmc",
        "lat": -51.10847113176658,
        "lon": 162.2062455010398,
        "alt_km": 652.1667535208808,
        "timestamp": "2025-12-26T09:30:53.294780+00:00",
        "meta_object_name": "HUANJING 1B (HJ-1B)",
        "meta_object_id": "2008-041B",
        "meta_epoch": "2025-12-26T05:14:04.570080",
        "meta_mean_motion": 14.82859169,
        "meta_eccentricity": 0.0037683,
        "meta_inclination": 97.641,
        "meta_ra_of_asc_node": 351.6158,
        "meta_arg_of_pericenter": 33.0581,
        "meta_mean_anomaly": 327.2977,
        "meta_ephemeris_type": 0,
        "meta_classification_type": "U",
        "meta_norad_cat_id": 33321,
        "meta_element_set_no": 999,
        "meta_rev_at_epoch": 93277,
        "meta_bstar": 0.00027536,
        "meta_mean_motion_dot": 2.206e-05,
        "meta_mean_motion_ddot": 0,
        "tle_line1": "1 33321U 08041B   25360.21810845  .00002206  00000+0  27536-3 0  9995",
        "tle_line2": "2 33321  97.6410 351.6158 0037683  33.0581 327.2977 14.82859169932775"
      },
      "geometry": {
        "type": "Point",
        "coordinates": [
          162.2062455010398,
          -51.10847113176658
        ]
      }
    },
    {
      "type": "Feature",
      "properties": {
        "norad_id": 33446,
        "name": "YAOGAN-4",
        "group": "dmc",
        "lat": 42.46905682709519,
        "lon": 117.68345643028951,
        "alt_km": 624.0349399411425,
        "timestamp": "2025-12-26T09:30:53.294793+00:00",
        "meta_object_name": "YAOGAN-4",
        "meta_object_id": "2008-061A",
        "meta_epoch": "2025-12-25T18:19:17.173344",
        "meta_mean_motion": 14.8271976,
        "meta_eccentricity": 0.00129661,
        "meta_inclination": 97.9198,
        "meta_ra_of_asc_node": 289.7359,
        "meta_arg_of_pericenter": 277.0684,
        "meta_mean_anomaly": 82.9055,
        "meta_ephemeris_type": 0,
        "meta_classification_type": "U",
        "meta_norad_cat_id": 33446,
        "meta_element_set_no": 999,
        "meta_rev_at_epoch": 91996,
        "meta_bstar": 0.00018510552,
        "meta_mean_motion_dot": 1.442e-05,
        "meta_mean_motion_ddot": 0,
        "tle_line1": "1 33446U 08061A   25359.76339321  .00001442  00000+0  18511-3 0  9992",
        "tle_line2": "2 33446  97.9198 289.7359 0012966 277.0684  82.9055 14.82719760919964"
      },
      "geometry": {
        "type": "Point",
        "coordinates": [
          117.68345643028951,
          42.46905682709519
        ]
      }
    },
    {
      "type": "Feature",
      "properties": {
        "norad_id": 35681,
        "name": "DEIMOS-1",
        "group": "dmc",
        "lat": -65.53941638363393,
        "lon": -36.97517924828601,
        "alt_km": 654.1732074879219,
        "timestamp": "2025-12-26T09:30:53.294805+00:00",
        "meta_object_name": "DEIMOS-1",
        "meta_object_id": "2009-041A",
        "meta_epoch": "2025-12-26T05:08:36.905856",
        "meta_mean_motion": 14.74972371,
        "meta_eccentricity": 0.0002439,
        "meta_inclination": 97.7158,
        "meta_ra_of_asc_node": 160.1911,
        "meta_arg_of_pericenter": 59.0529,
        "meta_mean_anomaly": 301.092,
        "meta_ephemeris_type": 0,
        "meta_classification_type": "U",
        "meta_norad_cat_id": 35681,
        "meta_element_set_no": 999,
        "meta_rev_at_epoch": 88138,
        "meta_bstar": 0.00012759,
        "meta_mean_motion_dot": 8.1e-06,
        "meta_mean_motion_ddot": 0,
        "tle_line1": "1 35681U 09041A   25360.21431604  .00000810  00000+0  12759-3 0  9999",
        "tle_line2": "2 35681  97.7158 160.1911 0002439  59.0529 301.0920 14.74972371881387"
      },
      "geometry": {
        "type": "Point",
        "coordinates": [
          -36.97517924828601,
          -65.53941638363393
        ]
      }
    },
    {
      "type": "Feature",
      "properties": {
        "norad_id": 35683,
        "name": "UK-DMC 2",
        "group": "dmc",
        "lat": -63.97374844288444,
        "lon": 151.34233233316695,
        "alt_km": 651.3311209753765,
        "timestamp": "2025-12-26T09:30:53.294817+00:00",
        "meta_object_name": "UK-DMC 2",
        "meta_object_id": "2009-041C",
        "meta_epoch": "2025-12-26T04:55:38.318304",
        "meta_mean_motion": 14.756493,
        "meta_eccentricity": 0.0001588,
        "meta_inclination": 97.8574,
        "meta_ra_of_asc_node": 134.7286,
        "meta_arg_of_pericenter": 92.6827,
        "meta_mean_anomaly": 267.4564,
        "meta_ephemeris_type": 0,
        "meta_classification_type": "U",
        "meta_norad_cat_id": 35683,
        "meta_element_set_no": 999,
        "meta_rev_at_epoch": 88105,
        "meta_bstar": 0.00016158,
        "meta_mean_motion_dot": 1.054e-05,
        "meta_mean_motion_ddot": 0,
        "tle_line1": "1 35683U 09041C   25360.20530461  .00001054  00000+0  16158-3 0  9999",
        "tle_line2": "2 35683  97.8574 134.7286 0001588  92.6827 267.4564 14.75649300881059"
      },
      "geometry": {
        "type": "Point",
        "coordinates": [
          151.34233233316695,
          -63.97374844288444
        ]
      }
    },
    {
      "type": "Feature",
      "properties": {
        "norad_id": 40715,
        "name": "DMC3-FM1",
        "group": "dmc",
        "lat": 72.6453945492329,
        "lon": 72.62825682660026,
        "alt_km": 607.8209300002036,
        "timestamp": "2025-12-26T09:30:53.294829+00:00",
        "meta_object_name": "DMC3-FM1",
        "meta_object_id": "2015-032A",
        "meta_epoch": "2025-12-26T04:11:27.435840",
        "meta_mean_motion": 14.85461887,
        "meta_eccentricity": 0.0004086,
        "meta_inclination": 97.6678,
        "meta_ra_of_asc_node": 226.8771,
        "meta_arg_of_pericenter": 264.7216,
        "meta_mean_anomaly": 95.3533,
        "meta_ephemeris_type": 0,
        "meta_classification_type": "U",
        "meta_norad_cat_id": 40715,
        "meta_element_set_no": 999,
        "meta_rev_at_epoch": 56422,
        "meta_bstar": 9.1305e-05,
        "meta_mean_motion_dot": 7.36e-06,
        "meta_mean_motion_ddot": 0,
        "tle_line1": "1 40715U 15032A   25360.17462310  .00000736  00000+0  91305-4 0  9995",
        "tle_line2": "2 40715  97.6678 226.8771 0004086 264.7216  95.3533 14.85461887564220"
      },
      "geometry": {
        "type": "Point",
        "coordinates": [
          72.62825682660026,
          72.6453945492329
        ]
      }
    },
    {
      "type": "Feature",
      "properties": {
        "norad_id": 40716,
        "name": "DMC3-FM2",
        "group": "dmc",
        "lat": -14.472364316927806,
        "lon": -129.46117976388533,
        "alt_km": 615.9878948757305,
        "timestamp": "2025-12-26T09:30:53.294840+00:00",
        "meta_object_name": "DMC3-FM2",
        "meta_object_id": "2015-032B",
        "meta_epoch": "2025-12-26T03:06:49.658688",
        "meta_mean_motion": 14.85465973,
        "meta_eccentricity": 0.0004559,
        "meta_inclination": 97.6736,
        "meta_ra_of_asc_node": 228.2875,
        "meta_arg_of_pericenter": 271.6904,
        "meta_mean_anomaly": 88.3789,
        "meta_ephemeris_type": 0,
        "meta_classification_type": "U",
        "meta_norad_cat_id": 40716,
        "meta_element_set_no": 999,
        "meta_rev_at_epoch": 56421,
        "meta_bstar": 0.00017472,
        "meta_mean_motion_dot": 1.456e-05,
        "meta_mean_motion_ddot": 0,
        "tle_line1": "1 40716U 15032B   25360.12974142  .00001456  00000+0  17472-3 0  9994",
        "tle_line2": "2 40716  97.6736 228.2875 0004559 271.6904  88.3789 14.85465973564217"
      },
      "geometry": {
        "type": "Point",
        "coordinates": [
          -129.46117976388533,
          -14.472364316927806
        ]
      }
    },
    {
      "type": "Feature",
      "properties": {
        "norad_id": 40717,
        "name": "DMC3-FM3",
        "group": "dmc",
        "lat": -48.71766908998947,
        "lon": 41.34644790941566,
        "alt_km": 617.0928446717671,
        "timestamp": "2025-12-26T09:30:53.294851+00:00",
        "meta_object_name": "DMC3-FM3",
        "meta_object_id": "2015-032C",
        "meta_epoch": "2025-12-26T03:38:08.248704",
        "meta_mean_motion": 14.85451907,
        "meta_eccentricity": 0.0003853,
        "meta_inclination": 97.6792,
        "meta_ra_of_asc_node": 229.9504,
        "meta_arg_of_pericenter": 273.4773,
        "meta_mean_anomaly": 86.6002,
        "meta_ephemeris_type": 0,
        "meta_classification_type": "U",
        "meta_norad_cat_id": 40717,
        "meta_element_set_no": 999,
        "meta_rev_at_epoch": 56422,
        "meta_bstar": 0.00015367,
        "meta_mean_motion_dot": 1.273e-05,
        "meta_mean_motion_ddot": 0,
        "tle_line1": "1 40717U 15032C   25360.15148436  .00001273  00000+0  15367-3 0  9995",
        "tle_line2": "2 40717  97.6792 229.9504 0003853 273.4773  86.6002 14.85451907564229"
      },
      "geometry": {
        "type": "Point",
        "coordinates": [
          41.34644790941566,
          -48.71766908998947
        ]
      }
    }
  ]
}